start=new Date('2022-12-30T00:00:00.000Z').valueOf();
sats=[{"APOAPSIS":"541.078","OBJECT_ID":"2022-136BD","BSTAR":"0.00042474000000","EPOCH":"2022-12-29T16:00:00.999936","ECCENTRICITY":"0.00017240","RCS_SIZE":"LARGE","ELEMENT_SET_NO":"999","OBJECT_NAME":"STARLINK-5179","DECAY_DATE":null,"FILE":"3725761","COUNTRY_CODE":"US","CLASSIFICATION_TYPE":"U","ARG_OF_PERICENTER":"62.1886","TLE_LINE2":"2 54102  53.2149 168.1898 0001724  62.1886 165.1524 15.08794369 11439","SITE":"AFETR","MEAN_MOTION_DDOT":"0.0000000000000","LAUNCH_DATE":"2022-10-20","NORAD_CAT_ID":"54102","TIME_SYSTEM":"UTC","GP_ID":"221714593","REV_AT_EPOCH":"1143","MEAN_ELEMENT_THEORY":"SGP4","RA_OF_ASC_NODE":"168.1898","TLE_LINE1":"1 54102U 22136BD  22363.66667824  .00006470  00000-0  42474-3 0  9998","MEAN_MOTION_DOT":"0.00006470","INCLINATION":"53.2149","SEMIMAJOR_AXIS":"6918.020","OBJECT_TYPE":"PAYLOAD","MEAN_MOTION":"15.08794369","MEAN_ANOMALY":"165.1524","CENTER_NAME":"EARTH","EPHEMERIS_TYPE":"0","PERIAPSIS":"538.692","PERIOD":"95.440","REF_FRAME":"TEME"},{"PERIAPSIS":"346.004","PERIOD":"91.535","REF_FRAME":"TEME","EPHEMERIS_TYPE":"0","CENTER_NAME":"EARTH","MEAN_MOTION":"15.73173238","MEAN_ANOMALY":"353.0433","SEMIMAJOR_AXIS":"6727.971","OBJECT_TYPE":"PAYLOAD","INCLINATION":"53.2143","MEAN_MOTION_DOT":"-0.00011399","MEAN_ELEMENT_THEORY":"SGP4","RA_OF_ASC_NODE":"162.2377","TLE_LINE1":"1 54103U 22136BE  22363.45067686 -.00011399  00000-0 -76870-4 0  9992","TIME_SYSTEM":"UTC","GP_ID":"221741445","REV_AT_EPOCH":"1102","MEAN_MOTION_DDOT":"0.0000000000000","LAUNCH_DATE":"2022-10-20","SITE":"AFETR","TLE_LINE2":"2 54103  53.2143 162.2377 0005696   7.0666 353.0433 15.73173238 11027","NORAD_CAT_ID":"54103","CLASSIFICATION_TYPE":"U","ARG_OF_PERICENTER":"7.0666","FILE":"3725790","COUNTRY_CODE":"US","ELEMENT_SET_NO":"999","RCS_SIZE":"LARGE","DECAY_DATE":null,"OBJECT_NAME":"STARLINK-5200","EPOCH":"2022-12-29T10:48:58.480704","ECCENTRICITY":"0.00056960","APOAPSIS":"353.669","BSTAR":"-0.00007687000000","OBJECT_ID":"2022-136BE"},{"RCS_SIZE":"LARGE","ELEMENT_SET_NO":"999","DECAY_DATE":null,"OBJECT_NAME":"STARLINK-5203","EPOCH":"2022-12-29T10:48:48.523104","ECCENTRICITY":"0.00028780","APOAPSIS":"351.809","BSTAR":"-0.00006167600000","OBJECT_ID":"2022-136BF","TIME_SYSTEM":"UTC","REV_AT_EPOCH":"1102","GP_ID":"221740817","MEAN_MOTION_DDOT":"0.0000000000000","LAUNCH_DATE":"2022-10-20","SITE":"AFETR","TLE_LINE2":"2 54104  53.2135 162.2358 0002878  14.2654 345.8447 15.73160580 11024","NORAD_CAT_ID":"54104","CLASSIFICATION_TYPE":"U","ARG_OF_PERICENTER":"14.2654","FILE":"3725790","COUNTRY_CODE":"US","MEAN_MOTION":"15.73160580","MEAN_ANOMALY":"345.8447","SEMIMAJOR_AXIS":"6728.008","OBJECT_TYPE":"PAYLOAD","INCLINATION":"53.2135","MEAN_MOTION_DOT":"-0.00009256","MEAN_ELEMENT_THEORY":"SGP4","RA_OF_ASC_NODE":"162.2358","TLE_LINE1":"1 54104U 22136BF  22363.45056161 -.00009256  00000-0 -61676-4 0  9996","PERIAPSIS":"347.936","REF_FRAME":"TEME","PERIOD":"91.535","EPHEMERIS_TYPE":"0","CENTER_NAME":"EARTH"},{"OBJECT_TYPE":"PAYLOAD","SEMIMAJOR_AXIS":"6917.870","MEAN_ANOMALY":"304.1138","MEAN_MOTION":"15.08843347","TLE_LINE1":"1 54157U 22141A   22363.38204322 -.00000332  00000-0 -27434-5 0  9997","MEAN_ELEMENT_THEORY":"SGP4","RA_OF_ASC_NODE":"209.9361","MEAN_MOTION_DOT":"-0.00000332","INCLINATION":"53.2172","REF_FRAME":"TEME","PERIOD":"95.437","PERIAPSIS":"538.586","CENTER_NAME":"EARTH","EPHEMERIS_TYPE":"0","ECCENTRICITY":"0.00016610","EPOCH":"2022-12-29T09:10:08.534208","OBJECT_NAME":"STARLINK-5290","DECAY_DATE":null,"RCS_SIZE":"LARGE","ELEMENT_SET_NO":"999","OBJECT_ID":"2022-141A","BSTAR":"-0.00000274340000","APOAPSIS":"540.884","NORAD_CAT_ID":"54157","TLE_LINE2":"2 54157  53.2172 209.9361 0001661  56.0011 304.1138 15.08843347  9643","SITE":"AFWTR","LAUNCH_DATE":"2022-10-28","MEAN_MOTION_DDOT":"0.0000000000000","REV_AT_EPOCH":"964","GP_ID":"221740404","TIME_SYSTEM":"UTC","COUNTRY_CODE":"US","FILE":"3725790","ARG_OF_PERICENTER":"56.0011","CLASSIFICATION_TYPE":"U"},{"REF_FRAME":"TEME","PERIOD":"95.437","PERIAPSIS":"538.537","EPHEMERIS_TYPE":"0","CENTER_NAME":"EARTH","MEAN_ANOMALY":"303.5433","MEAN_MOTION":"15.08843642","OBJECT_TYPE":"PAYLOAD","SEMIMAJOR_AXIS":"6917.869","INCLINATION":"53.2162","MEAN_MOTION_DOT":"-0.00000922","TLE_LINE1":"1 54158U 22141B   22362.99196934 -.00000922  00000-0 -39837-4 0  9997","MEAN_ELEMENT_THEORY":"SGP4","RA_OF_ASC_NODE":"211.7642","GP_ID":"221740613","REV_AT_EPOCH":"958","TIME_SYSTEM":"UTC","NORAD_CAT_ID":"54158","LAUNCH_DATE":"2022-10-28","MEAN_MOTION_DDOT":"0.0000000000000","TLE_LINE2":"2 54158  53.2162 211.7642 0001731  56.5724 303.5433 15.08843642  9582","SITE":"AFWTR","ARG_OF_PERICENTER":"56.5724","CLASSIFICATION_TYPE":"U","COUNTRY_CODE":"US","FILE":"3725790","DECAY_DATE":null,"OBJECT_NAME":"STARLINK-5297","RCS_SIZE":"LARGE","ELEMENT_SET_NO":"999","ECCENTRICITY":"0.00017310","EPOCH":"2022-12-28T23:48:26.150976","BSTAR":"-0.00003983700000","OBJECT_ID":"2022-141B","APOAPSIS":"540.932"},{"NORAD_CAT_ID":"54159","LAUNCH_DATE":"2022-10-28","MEAN_MOTION_DDOT":"0.0000000000000","TLE_LINE2":"2 54159  53.2167 208.6000 0001313 103.3820 256.7319 15.08837623  9680","SITE":"AFWTR","GP_ID":"221743177","REV_AT_EPOCH":"968","TIME_SYSTEM":"UTC","COUNTRY_CODE":"US","FILE":"3725858","ARG_OF_PERICENTER":"103.3820","CLASSIFICATION_TYPE":"U","ECCENTRICITY":"0.00013130","EPOCH":"2022-12-29T14:55:56.096256","DECAY_DATE":null,"OBJECT_NAME":"STARLINK-5294","RCS_SIZE":"LARGE","ELEMENT_SET_NO":"999","BSTAR":"-0.00002566100000","OBJECT_ID":"2022-141C","APOAPSIS":"540.661","PERIOD":"95.438","REF_FRAME":"TEME","PERIAPSIS":"538.844","CENTER_NAME":"EARTH","EPHEMERIS_TYPE":"0","OBJECT_TYPE":"PAYLOAD","SEMIMAJOR_AXIS":"6917.888","MEAN_ANOMALY":"256.7319","MEAN_MOTION":"15.08837623","TLE_LINE1":"1 54159U 22141C   22363.62217704 -.00000696  00000-0 -25661-4 0  9996","RA_OF_ASC_NODE":"208.6000","MEAN_ELEMENT_THEORY":"SGP4","INCLINATION":"53.2167","MEAN_MOTION_DOT":"-0.00000696"},{"MEAN_ANOMALY":"349.6320","MEAN_MOTION":"15.73156935","OBJECT_TYPE":"PAYLOAD","SEMIMAJOR_AXIS":"6728.018","MEAN_MOTION_DOT":"-0.00010074","INCLINATION":"53.2148","TLE_LINE1":"1 54160U 22141D   22363.61351644 -.00010074  00000-0 -67535-4 0  9996","MEAN_ELEMENT_THEORY":"SGP4","RA_OF_ASC_NODE":"194.2297","PERIOD":"91.536","REF_FRAME":"TEME","PERIAPSIS":"347.881","EPHEMERIS_TYPE":"0","CENTER_NAME":"EARTH","OBJECT_NAME":"STARLINK-5233","DECAY_DATE":null,"RCS_SIZE":"LARGE","ELEMENT_SET_NO":"999","ECCENTRICITY":"0.00029760","EPOCH":"2022-12-29T14:43:27.820416","OBJECT_ID":"2022-141D","BSTAR":"-0.00006753500000","APOAPSIS":"351.885","REV_AT_EPOCH":"988","GP_ID":"221743379","TIME_SYSTEM":"UTC","NORAD_CAT_ID":"54160","TLE_LINE2":"2 54160  53.2148 194.2297 0002976  10.4761 349.6320 15.73156935  9885","SITE":"AFWTR","MEAN_MOTION_DDOT":"0.0000000000000","LAUNCH_DATE":"2022-10-28","ARG_OF_PERICENTER":"10.4761","CLASSIFICATION_TYPE":"U","COUNTRY_CODE":"US","FILE":"3725858"},{"MEAN_MOTION":"15.08832443","MEAN_ANOMALY":"311.0017","SEMIMAJOR_AXIS":"6917.903","OBJECT_TYPE":"PAYLOAD","INCLINATION":"53.2155","MEAN_MOTION_DOT":"-0.00003416","MEAN_ELEMENT_THEORY":"SGP4","RA_OF_ASC_NODE":"209.0649","TLE_LINE1":"1 54161U 22141E   22363.58445277 -.00003416  00000-0 -19664-3 0  9990","PERIAPSIS":"538.460","REF_FRAME":"TEME","PERIOD":"95.438","EPHEMERIS_TYPE":"0","CENTER_NAME":"EARTH","ELEMENT_SET_NO":"999","RCS_SIZE":"LARGE","DECAY_DATE":null,"OBJECT_NAME":"STARLINK-5269","EPOCH":"2022-12-29T14:01:36.719328","ECCENTRICITY":"0.00018920","APOAPSIS":"541.077","BSTAR":"-0.00019664000000","OBJECT_ID":"2022-141E","TIME_SYSTEM":"UTC","GP_ID":"221743388","REV_AT_EPOCH":"967","MEAN_MOTION_DDOT":"0.0000000000000","LAUNCH_DATE":"2022-10-28","TLE_LINE2":"2 54161  53.2155 209.0649 0001892  49.1139 311.0017 15.08832443  9670","SITE":"AFWTR","NORAD_CAT_ID":"54161","CLASSIFICATION_TYPE":"U","ARG_OF_PERICENTER":"49.1139","FILE":"3725858","COUNTRY_CODE":"US"},{"ECCENTRICITY":"0.00018950","EPOCH":"2022-12-29T07:29:27.031488","DECAY_DATE":null,"OBJECT_NAME":"STARLINK-5273","RCS_SIZE":"LARGE","ELEMENT_SET_NO":"999","BSTAR":"-0.00005761400000","OBJECT_ID":"2022-141F","APOAPSIS":"541.065","NORAD_CAT_ID":"54162","MEAN_MOTION_DDOT":"0.0000000000000","LAUNCH_DATE":"2022-10-28","TLE_LINE2":"2 54162  53.2170 210.2123 0001895  62.1077 298.0107 15.08837123  9638","SITE":"AFWTR","GP_ID":"221741033","REV_AT_EPOCH":"963","TIME_SYSTEM":"UTC","COUNTRY_CODE":"US","FILE":"3725790","ARG_OF_PERICENTER":"62.1077","CLASSIFICATION_TYPE":"U","OBJECT_TYPE":"PAYLOAD","SEMIMAJOR_AXIS":"6917.889","MEAN_ANOMALY":"298.0107","MEAN_MOTION":"15.08837123","TLE_LINE1":"1 54162U 22141F   22363.31211842 -.00001205  00000-0 -57614-4 0  9993","RA_OF_ASC_NODE":"210.2123","MEAN_ELEMENT_THEORY":"SGP4","INCLINATION":"53.2170","MEAN_MOTION_DOT":"-0.00001205","PERIOD":"95.438","REF_FRAME":"TEME","PERIAPSIS":"538.443","CENTER_NAME":"EARTH","EPHEMERIS_TYPE":"0"},{"APOAPSIS":"513.158","BSTAR":"-0.06140100000000","OBJECT_ID":"2022-141G","ELEMENT_SET_NO":"999","RCS_SIZE":"LARGE","DECAY_DATE":null,"OBJECT_NAME":"STARLINK-5161","EPOCH":"2022-12-29T14:00:01.000224","ECCENTRICITY":"0.00013980","CLASSIFICATION_TYPE":"U","ARG_OF_PERICENTER":"68.1795","FILE":"3725790","COUNTRY_CODE":"US","TIME_SYSTEM":"UTC","GP_ID":"221741243","REV_AT_EPOCH":"130","MEAN_MOTION_DDOT":"0.0000000000000","LAUNCH_DATE":"2022-10-28","SITE":"AFWTR","TLE_LINE2":"2 54163  53.2167 199.2548 0001398  68.1795 200.4048 15.17898429  1306","NORAD_CAT_ID":"54163","INCLINATION":"53.2167","MEAN_MOTION_DOT":"-0.01160470","RA_OF_ASC_NODE":"199.2548","MEAN_ELEMENT_THEORY":"SGP4","TLE_LINE1":"1 54163U 22141G   22363.58334491 -.01160470  00000-0 -61401-1 0  9996","MEAN_MOTION":"15.17898429","MEAN_ANOMALY":"200.4048","SEMIMAJOR_AXIS":"6890.330","OBJECT_TYPE":"PAYLOAD","EPHEMERIS_TYPE":"0","CENTER_NAME":"EARTH","PERIAPSIS":"511.232","REF_FRAME":"TEME","PERIOD":"94.868"}];
